{
 "type": "FeatureCollection",
 "name": "control_points",
 "crs": {
  "type": "name",
  "properties": {
   "name": "urn:ogc:def:crs:OGC:1.3:CRS84"
  }
 },
 "features": [
  {
   "type": "Feature",
   "properties": {
    "sheet_id": "EXAMPLE - delete this feature",
    "feature_type": "road junction",
    "note": "start vertex = position on the historical map, end vertex = true position"
   },
   "geometry": {
    "type": "LineString",
    "coordinates": [
     [
      105.9,
      -2.0
     ],
     [
      105.9018,
      -2.0006
     ]
    ]
   }
  }
 ]
}