{"type": "FeatureCollection", "features": [{"type": "Feature", "geometry": {"type": "Polygon", "coordinates": [[[105.05929788226136, -1.9171457361355648], [105.14263121559469, -1.9171457361355648], [105.14263121559469, -2.000479089595265], [105.05929788226136, -2.000479089595265], [105.05929788226136, -1.9171457361355648]]]}, "properties": {"sheet_id": "31-XXIV-q", "kind": "single", "anchor": "cell", "span_lon_arcmin": 5.009, "span_lat_arcmin": 5.0341, "beyond_cell_m": 63, "frame_measured": "both", "n_cells": 1}}, {"type": "Feature", "geometry": {"type": "Polygon", "coordinates": [[[105.05929788226136, -2.000479071864894], [105.14263121559469, -2.000479071864894], [105.14263121559469, -2.087192052286068], [105.05929788226136, -2.087192052286068], [105.05929788226136, -2.000479071864894]]]}, "properties": {"sheet_id": "31-XXV-dh", "kind": "composite", "anchor": "top", "span_lon_arcmin": 5.0183, "span_lat_arcmin": 5.2102, "beyond_cell_m": 389, "frame_measured": "both", "n_cells": 2}}, {"type": "Feature", "geometry": {"type": "Polygon", "coordinates": [[[105.39263121559469, -1.5004792505055324], [105.47596454892802, -1.5004792505055324], [105.47596454892802, -1.5838123481533175], [105.39263121559469, -1.5838123481533175], [105.39263121559469, -1.5004792505055324]]]}, "properties": {"sheet_id": "32-XXIII-m", "kind": "single", "anchor": "cell", "span_lon_arcmin": 5.0075, "span_lat_arcmin": 5.0181, "beyond_cell_m": 34, "frame_measured": "both", "n_cells": 1}}, {"type": "Feature", "geometry": {"type": "Polygon", "coordinates": [[[105.30929788226136, -1.5838125375529555], [105.39263121559469, -1.5838125375529555], [105.39263121559469, -1.6671455972036309], [105.30929788226136, -1.6671455972036309], [105.30929788226136, -1.5838125375529555]]]}, "properties": {"sheet_id": "32-XXIII-p", "kind": "single", "anchor": "cell", "span_lon_arcmin": 5.0084, "span_lat_arcmin": 5.0141, "beyond_cell_m": 26, "frame_measured": "both", "n_cells": 1}}, {"type": "Feature", "geometry": {"type": "Polygon", "coordinates": [[[105.39263121559469, -1.5838124154383206], [105.47596454892802, -1.5838124154383206], [105.47596454892802, -1.6671456688989268], [105.39263121559469, -1.6671456688989268], [105.39263121559469, -1.5838124154383206]]]}, "properties": {"sheet_id": "32-XXIII-q", "kind": "single", "anchor": "cell", "span_lon_arcmin": 5.0132, "span_lat_arcmin": 5.0045, "beyond_cell_m": 25, "frame_measured": "both", "n_cells": 1}}, {"type": "Feature", "geometry": {"type": "Polygon", "coordinates": [[[105.30929788226136, -1.6671457806390533], [105.39263121559469, -1.6671457806390533], [105.39263121559469, -1.7504788823811772], [105.30929788226136, -1.7504788823811772], [105.30929788226136, -1.6671457806390533]]]}, "properties": {"sheet_id": "32-XXIV-c", "kind": "single", "anchor": "cell", "span_lon_arcmin": 5.0077, "span_lat_arcmin": 5.0051, "beyond_cell_m": 14, "frame_measured": "both", "n_cells": 1}}, {"type": "Feature", "geometry": {"type": "Polygon", "coordinates": [[[105.39263121559469, -1.6671457741125777], [105.47596454892802, -1.6671457741125777], [105.47596454892802, -1.750479045179131], [105.39263121559469, -1.750479045179131], [105.39263121559469, -1.6671457741125777]]]}, "properties": {"sheet_id": "32-XXIV-d", "kind": "single", "anchor": "cell", "span_lon_arcmin": 5.0119, "span_lat_arcmin": 5.0073, "beyond_cell_m": 22, "frame_measured": "both", "n_cells": 1}}, {"type": "Feature", "geometry": {"type": "Polygon", "coordinates": [[[105.30929788226136, -1.750479070039174], [105.39263121559469, -1.750479070039174], [105.39263121559469, -1.8338124071978255], [105.30929788226136, -1.8338124071978255], [105.30929788226136, -1.750479070039174]]]}, "properties": {"sheet_id": "32-XXIV-g", "kind": "single", "anchor": "cell", "span_lon_arcmin": 5.0174, "span_lat_arcmin": 5.0102, "beyond_cell_m": 32, "frame_measured": "both", "n_cells": 1}}, {"type": "Feature", "geometry": {"type": "Polygon", "coordinates": [[[105.39263121559469, -1.7504790922092366], [105.47596454892802, -1.7504790922092366], [105.47596454892802, -1.8338124002448222], [105.39263121559469, -1.8338124002448222], [105.39263121559469, -1.7504790922092366]]]}, "properties": {"sheet_id": "32-XXIV-h", "kind": "single", "anchor": "cell", "span_lon_arcmin": 5.0116, "span_lat_arcmin": 5.0165, "beyond_cell_m": 31, "frame_measured": "both", "n_cells": 1}}, {"type": "Feature", "geometry": {"type": "Polygon", "coordinates": [[[105.22596454892802, -1.8338126314522303], [105.30929788226135, -1.8338126314522303], [105.30929788226135, -1.9171456389797992], [105.22596454892802, -1.9171456389797992], [105.22596454892802, -1.8338126314522303]]]}, "properties": {"sheet_id": "32-XXIV-k", "kind": "single", "anchor": "cell", "span_lon_arcmin": 5.0162, "span_lat_arcmin": 5.0208, "beyond_cell_m": 39, "frame_measured": "both", "n_cells": 1}}, {"type": "Feature", "geometry": {"type": "Polygon", "coordinates": [[[105.30929788226136, -1.8338125703264785], [105.39263121559469, -1.8338125703264785], [105.39263121559469, -1.9171455985315211], [105.30929788226136, -1.9171455985315211], [105.30929788226136, -1.8338125703264785]]]}, "properties": {"sheet_id": "32-XXIV-l", "kind": "single", "anchor": "cell", "span_lon_arcmin": 5.0099, "span_lat_arcmin": 5.0098, "beyond_cell_m": 18, "frame_measured": "both", "n_cells": 1}}, {"type": "Feature", "geometry": {"type": "Polygon", "coordinates": [[[105.39263121559469, -1.8338125339941633], [105.47596454892802, -1.8338125339941633], [105.47596454892802, -1.9171456876492152], [105.39263121559469, -1.9171456876492152], [105.39263121559469, -1.8338125339941633]]]}, "properties": {"sheet_id": "32-XXIV-m", "kind": "single", "anchor": "cell", "span_lon_arcmin": 5.0068, "span_lat_arcmin": 5.0131, "beyond_cell_m": 24, "frame_measured": "both", "n_cells": 1}}, {"type": "Feature", "geometry": {"type": "Polygon", "coordinates": [[[105.14263121559469, -1.9057662318730955], [105.22596454892802, -1.9057662318730955], [105.22596454892802, -2.000479071864894], [105.14263121559469, -2.000479071864894], [105.14263121559469, -1.9057662318730955]]]}, "properties": {"sheet_id": "32-XXIV-ni", "kind": "composite", "anchor": "bottom", "span_lon_arcmin": 5.0177, "span_lat_arcmin": 5.6931, "beyond_cell_m": 1284, "frame_measured": "both", "n_cells": 2}}, {"type": "Feature", "geometry": {"type": "Polygon", "coordinates": [[[105.22596454892802, -1.9171456296701834], [105.30929788226135, -1.9171456296701834], [105.30929788226135, -2.0004791538311073], [105.22596454892802, -2.0004791538311073], [105.22596454892802, -1.9171456296701834]]]}, "properties": {"sheet_id": "32-XXIV-o", "kind": "single", "anchor": "cell", "span_lon_arcmin": 5.0092, "span_lat_arcmin": 5.0173, "beyond_cell_m": 32, "frame_measured": "height", "n_cells": 1}}, {"type": "Feature", "geometry": {"type": "Polygon", "coordinates": [[[105.30929788226136, -1.9171457133204466], [105.39263121559469, -1.9171457133204466], [105.39263121559469, -2.000479110787316], [105.30929788226136, -2.000479110787316], [105.30929788226136, -1.9171457133204466]]]}, "properties": {"sheet_id": "32-XXIV-p", "kind": "single", "anchor": "cell", "span_lon_arcmin": 5.0089, "span_lat_arcmin": 5.0168, "beyond_cell_m": 31, "frame_measured": "both", "n_cells": 1}}, {"type": "Feature", "geometry": {"type": "Polygon", "coordinates": [[[105.39263121559469, -1.9171454086036355], [105.47596454892802, -1.9171454086036355], [105.47596454892802, -2.000479323434937], [105.39263121559469, -2.000479323434937], [105.39263121559469, -1.9171454086036355]]]}, "properties": {"sheet_id": "32-XXIV-q", "kind": "single", "anchor": "cell", "span_lon_arcmin": 5.018, "span_lat_arcmin": 5.0163, "beyond_cell_m": 33, "frame_measured": "both", "n_cells": 1}}, {"type": "Feature", "geometry": {"type": "Polygon", "coordinates": [[[105.14263121559469, -2.0004790763618594], [105.22596454892802, -2.0004790763618594], [105.22596454892802, -2.0838123962042965], [105.14263121559469, -2.0838123962042965], [105.14263121559469, -2.0004790763618594]]]}, "properties": {"sheet_id": "32-XXV-a", "kind": "single", "anchor": "cell", "span_lon_arcmin": 5.0181, "span_lat_arcmin": 5.0069, "beyond_cell_m": 33, "frame_measured": "both", "n_cells": 1}}, {"type": "Feature", "geometry": {"type": "Polygon", "coordinates": [[[105.22596454892802, -2.000479386202385], [105.30929788226135, -2.000479386202385], [105.30929788226135, -2.083812271437593], [105.22596454892802, -2.083812271437593], [105.22596454892802, -2.000479386202385]]]}, "properties": {"sheet_id": "32-XXV-b", "kind": "single", "anchor": "cell", "span_lon_arcmin": 5.0278, "span_lat_arcmin": 5.0155, "beyond_cell_m": 51, "frame_measured": "both", "n_cells": 1}}, {"type": "Feature", "geometry": {"type": "Polygon", "coordinates": [[[105.30929788226136, -2.0004790803076204], [105.39263121559469, -2.0004790803076204], [105.39263121559469, -2.083812396971981], [105.30929788226136, -2.083812396971981], [105.30929788226136, -2.0004790803076204]]]}, "properties": {"sheet_id": "32-XXV-c", "kind": "single", "anchor": "cell", "span_lon_arcmin": 5.0131, "span_lat_arcmin": 5.0089, "beyond_cell_m": 24, "frame_measured": "both", "n_cells": 1}}, {"type": "Feature", "geometry": {"type": "Polygon", "coordinates": [[[105.39263121559469, -2.000479675592157], [105.47596454892802, -2.000479675592157], [105.47596454892802, -2.083812026263031], [105.39263121559469, -2.083812026263031], [105.39263121559469, -2.000479675592157]]]}, "properties": {"sheet_id": "32-XXV-d", "kind": "single", "anchor": "cell", "span_lon_arcmin": 5.0056, "span_lat_arcmin": 5.0176, "beyond_cell_m": 33, "frame_measured": "both", "n_cells": 1}}, {"type": "Feature", "geometry": {"type": "Polygon", "coordinates": [[[105.22596454892802, -2.083812367857675], [105.30929788226135, -2.083812367857675], [105.30929788226135, -2.1671457825400693], [105.22596454892802, -2.1671457825400693], [105.22596454892802, -2.083812367857675]]]}, "properties": {"sheet_id": "32-XXV-f", "kind": "single", "anchor": "cell", "span_lon_arcmin": 5.0153, "span_lat_arcmin": 5.0071, "beyond_cell_m": 28, "frame_measured": "both", "n_cells": 1}}, {"type": "Feature", "geometry": {"type": "Polygon", "coordinates": [[[105.30929788226136, -2.0838124907287345], [105.39263121559469, -2.0838124907287345], [105.39263121559469, -2.167145618788851], [105.30929788226136, -2.167145618788851], [105.30929788226136, -2.0838124907287345]]]}, "properties": {"sheet_id": "32-XXV-g", "kind": "single", "anchor": "cell", "span_lon_arcmin": 5.0137, "span_lat_arcmin": 5.0153, "beyond_cell_m": 28, "frame_measured": "both", "n_cells": 1}}, {"type": "Feature", "geometry": {"type": "Polygon", "coordinates": [[[105.39263121559469, -2.083812491894867], [105.47596454892802, -2.083812491894867], [105.47596454892802, -2.1671456631431787], [105.39263121559469, -2.1671456631431787], [105.39263121559469, -2.083812491894867]]]}, "properties": {"sheet_id": "32-XXV-h", "kind": "single", "anchor": "cell", "span_lon_arcmin": 5.0092, "span_lat_arcmin": 5.005, "beyond_cell_m": 17, "frame_measured": "both", "n_cells": 1}}, {"type": "Feature", "geometry": {"type": "Polygon", "coordinates": [[[105.47596454892802, -1.5004791039037753], [105.55929788226135, -1.5004791039037753], [105.55929788226135, -1.5838123090815834], [105.47596454892802, -1.5838123090815834], [105.47596454892802, -1.5004791039037753]]]}, "properties": {"sheet_id": "33-XXIII-i", "kind": "single", "anchor": "cell", "span_lon_arcmin": 5.0108, "span_lat_arcmin": 5.0069, "beyond_cell_m": 20, "frame_measured": "both", "n_cells": 1}}, {"type": "Feature", "geometry": {"type": "Polygon", "coordinates": [[[105.55929788226136, -1.5004791062380156], [105.64263121559469, -1.5004791062380156], [105.64263121559469, -1.5838123630130323], [105.55929788226136, -1.5838123630130323], [105.55929788226136, -1.5004791062380156]]]}, "properties": {"sheet_id": "33-XXIII-k", "kind": "single", "anchor": "cell", "span_lon_arcmin": 5.018, "span_lat_arcmin": 5.0057, "beyond_cell_m": 33, "frame_measured": "both", "n_cells": 1}}, {"type": "Feature", "geometry": {"type": "Polygon", "coordinates": [[[105.64263121559469, -1.5004790160135864], [105.72596454892802, -1.5004790160135864], [105.72596454892802, -1.5838124051982272], [105.64263121559469, -1.5838124051982272], [105.64263121559469, -1.5004790160135864]]]}, "properties": {"sheet_id": "33-XXIII-l", "kind": "single", "anchor": "cell", "span_lon_arcmin": 5.0108, "span_lat_arcmin": 5.0115, "beyond_cell_m": 21, "frame_measured": "width", "n_cells": 1}}, {"type": "Feature", "geometry": {"type": "Polygon", "coordinates": [[[105.72596454892802, -1.5004791296273186], [105.80929788226135, -1.5004791296273186], [105.80929788226135, -1.5838123740953833], [105.72596454892802, -1.5838123740953833], [105.72596454892802, -1.5004791296273186]]]}, "properties": {"sheet_id": "33-XXIII-m", "kind": "single", "anchor": "cell", "span_lon_arcmin": 5.008, "span_lat_arcmin": 5.0069, "beyond_cell_m": 15, "frame_measured": "height", "n_cells": 1}}, {"type": "Feature", "geometry": {"type": "Polygon", "coordinates": [[[105.47596454892802, -1.5838129051734382], [105.55929788226135, -1.5838129051734382], [105.55929788226135, -1.6671454629042008], [105.47596454892802, -1.6671454629042008], [105.47596454892802, -1.5838129051734382]]]}, "properties": {"sheet_id": "33-XXIII-n", "kind": "single", "anchor": "cell", "span_lon_arcmin": 5.0091, "span_lat_arcmin": 5.014, "beyond_cell_m": 26, "frame_measured": "both", "n_cells": 1}}, {"type": "Feature", "geometry": {"type": "Polygon", "coordinates": [[[105.55929788226136, -1.5838124245968896], [105.64263121559469, -1.5838124245968896], [105.64263121559469, -1.667145682922062], [105.55929788226136, -1.667145682922062], [105.55929788226136, -1.5838124245968896]]]}, "properties": {"sheet_id": "33-XXIII-o", "kind": "single", "anchor": "cell", "span_lon_arcmin": 5.0105, "span_lat_arcmin": 5.0067, "beyond_cell_m": 19, "frame_measured": "both", "n_cells": 1}}, {"type": "Feature", "geometry": {"type": "Polygon", "coordinates": [[[105.64263121559469, -1.5838124195932781], [105.72596454892802, -1.5838124195932781], [105.72596454892802, -1.6671456905480582], [105.64263121559469, -1.6671456905480582], [105.64263121559469, -1.5838124195932781]]]}, "properties": {"sheet_id": "33-XXIII-p", "kind": "single", "anchor": "cell", "span_lon_arcmin": 5.0121, "span_lat_arcmin": 5.0045, "beyond_cell_m": 22, "frame_measured": "both", "n_cells": 1}}, {"type": "Feature", "geometry": {"type": "Polygon", "coordinates": [[[105.72596454892802, -1.5838124021126743], [105.80929788226135, -1.5838124021126743], [105.80929788226135, -1.6671457431354018], [105.72596454892802, -1.6671457431354018], [105.72596454892802, -1.5838124021126743]]]}, "properties": {"sheet_id": "33-XXIII-q", "kind": "single", "anchor": "cell", "span_lon_arcmin": 5.0092, "span_lat_arcmin": 5.0181, "beyond_cell_m": 34, "frame_measured": "both", "n_cells": 1}}, {"type": "Feature", "geometry": {"type": "Polygon", "coordinates": [[[105.47596454892802, -1.667145778171058], [105.55929788226135, -1.667145778171058], [105.55929788226135, -1.7504790030567101], [105.47596454892802, -1.7504790030567101], [105.47596454892802, -1.667145778171058]]]}, "properties": {"sheet_id": "33-XXIV-a", "kind": "single", "anchor": "cell", "span_lon_arcmin": 5.0127, "span_lat_arcmin": 5.0168, "beyond_cell_m": 31, "frame_measured": "both", "n_cells": 1}}, {"type": "Feature", "geometry": {"type": "Polygon", "coordinates": [[[105.55929788226136, -1.667145753795326], [105.64263121559469, -1.667145753795326], [105.64263121559469, -1.7504790530787213], [105.55929788226136, -1.7504790530787213], [105.55929788226136, -1.667145753795326]]]}, "properties": {"sheet_id": "33-XXIV-b", "kind": "single", "anchor": "cell", "span_lon_arcmin": 5.0138, "span_lat_arcmin": 5.0101, "beyond_cell_m": 26, "frame_measured": "both", "n_cells": 1}}, {"type": "Feature", "geometry": {"type": "Polygon", "coordinates": [[[105.64263121559469, -1.6671456864536969], [105.72596454892802, -1.6671456864536969], [105.72596454892802, -1.750479086603912], [105.64263121559469, -1.750479086603912], [105.64263121559469, -1.6671456864536969]]]}, "properties": {"sheet_id": "33-XXIV-c", "kind": "single", "anchor": "cell", "span_lon_arcmin": 5.0056, "span_lat_arcmin": 5.0157, "beyond_cell_m": 29, "frame_measured": "both", "n_cells": 1}}, {"type": "Feature", "geometry": {"type": "Polygon", "coordinates": [[[105.72596454892802, -1.6671458588051817], [105.80929788226135, -1.6671458588051817], [105.80929788226135, -1.7504789785491535], [105.72596454892802, -1.7504789785491535], [105.72596454892802, -1.6671458588051817]]]}, "properties": {"sheet_id": "33-XXIV-d", "kind": "single", "anchor": "cell", "span_lon_arcmin": 5.0113, "span_lat_arcmin": 5.0119, "beyond_cell_m": 22, "frame_measured": "both", "n_cells": 1}}, {"type": "Feature", "geometry": {"type": "Polygon", "coordinates": [[[105.47596454892802, -1.7504790752463055], [105.55929788226135, -1.7504790752463055], [105.55929788226135, -1.83381240225033], [105.47596454892802, -1.83381240225033], [105.47596454892802, -1.7504790752463055]]]}, "properties": {"sheet_id": "33-XXIV-e", "kind": "single", "anchor": "cell", "span_lon_arcmin": 5.0153, "span_lat_arcmin": 5.0084, "beyond_cell_m": 28, "frame_measured": "both", "n_cells": 1}}, {"type": "Feature", "geometry": {"type": "Polygon", "coordinates": [[[105.55929788226136, -1.75047929877354], [105.64263121559469, -1.75047929877354], [105.64263121559469, -1.8338123382415774], [105.55929788226136, -1.8338123382415774], [105.55929788226136, -1.75047929877354]]]}, "properties": {"sheet_id": "33-XXIV-f", "kind": "single", "anchor": "cell", "span_lon_arcmin": 5.0067, "span_lat_arcmin": 5.0183, "beyond_cell_m": 34, "frame_measured": "both", "n_cells": 1}}, {"type": "Feature", "geometry": {"type": "Polygon", "coordinates": [[[105.64263121559469, -1.7504789456822933], [105.72596454892802, -1.7504789456822933], [105.72596454892802, -1.8338124833112657], [105.64263121559469, -1.8338124833112657], [105.64263121559469, -1.7504789456822933]]]}, "properties": {"sheet_id": "33-XXIV-g", "kind": "single", "anchor": "cell", "span_lon_arcmin": 5.0083, "span_lat_arcmin": 5.0158, "beyond_cell_m": 29, "frame_measured": "both", "n_cells": 1}}, {"type": "Feature", "geometry": {"type": "Polygon", "coordinates": [[[105.72596454892802, -1.7504790465277285], [105.80929788226135, -1.7504790465277285], [105.80929788226135, -1.8338124278683225], [105.72596454892802, -1.8338124278683225], [105.72596454892802, -1.7504790465277285]]]}, "properties": {"sheet_id": "33-XXIV-h", "kind": "single", "anchor": "cell", "span_lon_arcmin": 5.0056, "span_lat_arcmin": 5.0083, "beyond_cell_m": 15, "frame_measured": "both", "n_cells": 1}}, {"type": "Feature", "geometry": {"type": "Polygon", "coordinates": [[[105.47596454892802, -1.8338125743952391], [105.55929788226135, -1.8338125743952391], [105.55929788226135, -1.9171455334442733], [105.47596454892802, -1.9171455334442733], [105.47596454892802, -1.8338125743952391]]]}, "properties": {"sheet_id": "33-XXIV-i", "kind": "single", "anchor": "cell", "span_lon_arcmin": 5.0196, "span_lat_arcmin": 5.0169, "beyond_cell_m": 36, "frame_measured": "both", "n_cells": 1}}, {"type": "Feature", "geometry": {"type": "Polygon", "coordinates": [[[105.55929788226136, -1.8338123310433825], [105.64263121559469, -1.8338123310433825], [105.64263121559469, -1.917145811490359], [105.55929788226136, -1.917145811490359], [105.55929788226136, -1.8338123310433825]]]}, "properties": {"sheet_id": "33-XXIV-k", "kind": "single", "anchor": "cell", "span_lon_arcmin": 5.0083, "span_lat_arcmin": 5.0142, "beyond_cell_m": 26, "frame_measured": "height", "n_cells": 1}}, {"type": "Feature", "geometry": {"type": "Polygon", "coordinates": [[[105.64263121559469, -1.8338122846325804], [105.72596454892802, -1.8338122846325804], [105.72596454892802, -1.9171459887052775], [105.64263121559469, -1.9171459887052775], [105.64263121559469, -1.8338122846325804]]]}, "properties": {"sheet_id": "33-XXIV-l", "kind": "single", "anchor": "cell", "span_lon_arcmin": 5.0177, "span_lat_arcmin": 5.0143, "beyond_cell_m": 33, "frame_measured": "both", "n_cells": 1}}, {"type": "Feature", "geometry": {"type": "Polygon", "coordinates": [[[105.72596454892802, -1.8338123819605547], [105.80929788226135, -1.8338123819605547], [105.80929788226135, -1.9171457521536444], [105.72596454892802, -1.9171457521536444], [105.72596454892802, -1.8338123819605547]]]}, "properties": {"sheet_id": "33-XXIV-m", "kind": "single", "anchor": "cell", "span_lon_arcmin": 5.0188, "span_lat_arcmin": 5.0106, "beyond_cell_m": 35, "frame_measured": "height", "n_cells": 1}}, {"type": "Feature", "geometry": {"type": "Polygon", "coordinates": [[[105.47596454892802, -1.9171456662605606], [105.55929788226135, -1.9171456662605606], [105.55929788226135, -2.000479288677894], [105.47596454892802, -2.000479288677894], [105.47596454892802, -1.9171456662605606]]]}, "properties": {"sheet_id": "33-XXIV-n", "kind": "single", "anchor": "cell", "span_lon_arcmin": 5.0114, "span_lat_arcmin": 5.006, "beyond_cell_m": 21, "frame_measured": "both", "n_cells": 1}}, {"type": "Feature", "geometry": {"type": "Polygon", "coordinates": [[[105.55929788226136, -1.9171462579906549], [105.64263121559469, -1.9171462579906549], [105.64263121559469, -2.000478930194232], [105.55929788226136, -2.000478930194232], [105.55929788226136, -1.9171462579906549]]]}, "properties": {"sheet_id": "33-XXIV-o", "kind": "single", "anchor": "cell", "span_lon_arcmin": 5.0114, "span_lat_arcmin": 5.0178, "beyond_cell_m": 33, "frame_measured": "height", "n_cells": 1}}, {"type": "Feature", "geometry": {"type": "Polygon", "coordinates": [[[105.64263121559469, -1.9171460440538965], [105.72596454892802, -1.9171460440538965], [105.72596454892802, -2.000478950665951], [105.64263121559469, -2.000478950665951], [105.64263121559469, -1.9171460440538965]]]}, "properties": {"sheet_id": "33-XXIV-p", "kind": "single", "anchor": "cell", "span_lon_arcmin": 5.0108, "span_lat_arcmin": 5.0195, "beyond_cell_m": 36, "frame_measured": "both", "n_cells": 1}}, {"type": "Feature", "geometry": {"type": "Polygon", "coordinates": [[[105.72596454892802, -1.91714570053859], [105.80929788226135, -1.91714570053859], [105.80929788226135, -2.0004792100211515], [105.72596454892802, -2.0004792100211515], [105.72596454892802, -1.91714570053859]]]}, "properties": {"sheet_id": "33-XXIV-q", "kind": "single", "anchor": "cell", "span_lon_arcmin": 5.0073, "span_lat_arcmin": 5.0118, "beyond_cell_m": 22, "frame_measured": "height", "n_cells": 1}}, {"type": "Feature", "geometry": {"type": "Polygon", "coordinates": [[[105.47596454892802, -2.000479071864894], [105.55929788226135, -2.000479071864894], [105.55929788226135, -2.101775830248429], [105.47596454892802, -2.101775830248429], [105.47596454892802, -2.000479071864894]]]}, "properties": {"sheet_id": "33-XXV-ae", "kind": "composite", "anchor": "top", "span_lon_arcmin": 5.0142, "span_lat_arcmin": 6.1002, "beyond_cell_m": 2037, "frame_measured": "both", "n_cells": 2}}, {"type": "Feature", "geometry": {"type": "Polygon", "coordinates": [[[105.55929788226136, -2.000479063373737], [105.64263121559469, -2.000479063373737], [105.64263121559469, -2.0838124370400677], [105.55929788226136, -2.0838124370400677], [105.55929788226136, -2.000479063373737]]]}, "properties": {"sheet_id": "33-XXV-b", "kind": "single", "anchor": "cell", "span_lon_arcmin": 5.0202, "span_lat_arcmin": 5.0066, "beyond_cell_m": 37, "frame_measured": "both", "n_cells": 1}}, {"type": "Feature", "geometry": {"type": "Polygon", "coordinates": [[[105.64263121559469, -2.0004792342532394], [105.72596454892802, -2.0004792342532394], [105.72596454892802, -2.083812335030424], [105.64263121559469, -2.083812335030424], [105.64263121559469, -2.0004792342532394]]]}, "properties": {"sheet_id": "33-XXV-c", "kind": "single", "anchor": "cell", "span_lon_arcmin": 5.0107, "span_lat_arcmin": 5.0134, "beyond_cell_m": 25, "frame_measured": "both", "n_cells": 1}}, {"type": "Feature", "geometry": {"type": "Polygon", "coordinates": [[[105.72596454892802, -2.0004790201117286], [105.80929788226135, -2.0004790201117286], [105.80929788226135, -2.0838124051982274], [105.72596454892802, -2.0838124051982274], [105.72596454892802, -2.0004790201117286]]]}, "properties": {"sheet_id": "33-XXV-d", "kind": "single", "anchor": "cell", "span_lon_arcmin": 5.016, "span_lat_arcmin": 5.0065, "beyond_cell_m": 30, "frame_measured": "width", "n_cells": 1}}, {"type": "Feature", "geometry": {"type": "Polygon", "coordinates": [[[105.55929788226136, -2.0838116917893688], [105.64263121559469, -2.0838116917893688], [105.64263121559469, -2.1671460922880197], [105.55929788226136, -2.1671460922880197], [105.55929788226136, -2.0838116917893688]]]}, "properties": {"sheet_id": "33-XXV-f", "kind": "single", "anchor": "cell", "span_lon_arcmin": 5.0111, "span_lat_arcmin": 5.021, "beyond_cell_m": 39, "frame_measured": "both", "n_cells": 1}}, {"type": "Feature", "geometry": {"type": "Polygon", "coordinates": [[[105.64263121559469, -2.083812309505465], [105.72596454892802, -2.083812309505465], [105.72596454892802, -2.1671459367522834], [105.64263121559469, -2.1671459367522834], [105.64263121559469, -2.083812309505465]]]}, "properties": {"sheet_id": "33-XXV-g", "kind": "single", "anchor": "cell", "span_lon_arcmin": 5.0098, "span_lat_arcmin": 5.01, "beyond_cell_m": 18, "frame_measured": "both", "n_cells": 1}}, {"type": "Feature", "geometry": {"type": "Polygon", "coordinates": [[[105.72596454892802, -2.0838122117708453], [105.80929788226135, -2.0838122117708453], [105.80929788226135, -2.167145943337024], [105.72596454892802, -2.167145943337024], [105.72596454892802, -2.0838122117708453]]]}, "properties": {"sheet_id": "33-XXV-h", "kind": "single", "anchor": "cell", "span_lon_arcmin": 5.0069, "span_lat_arcmin": 5.0081, "beyond_cell_m": 15, "frame_measured": "both", "n_cells": 1}}, {"type": "Feature", "geometry": {"type": "Polygon", "coordinates": [[[105.72596454892802, -2.1671451618871576], [105.80929788226135, -2.1671451618871576], [105.80929788226135, -2.250479267422561], [105.72596454892802, -2.250479267422561], [105.72596454892802, -2.1671451618871576]]]}, "properties": {"sheet_id": "33-XXV-m", "kind": "single", "anchor": "cell", "span_lon_arcmin": 5.0149, "span_lat_arcmin": 5.0179, "beyond_cell_m": 33, "frame_measured": "both", "n_cells": 1}}, {"type": "Feature", "geometry": {"type": "Polygon", "coordinates": [[[105.72596454892802, -2.2504790604377303], [105.80929788226135, -2.2504790604377303], [105.80929788226135, -2.3338125276321207], [105.72596454892802, -2.3338125276321207], [105.72596454892802, -2.2504790604377303]]]}, "properties": {"sheet_id": "33-XXV-q", "kind": "single", "anchor": "cell", "span_lon_arcmin": 5.0163, "span_lat_arcmin": 5.0095, "beyond_cell_m": 30, "frame_measured": "both", "n_cells": 1}}, {"type": "Feature", "geometry": {"type": "Polygon", "coordinates": [[[105.72596454892802, -2.3338124051982274], [105.80929788226135, -2.3338124051982274], [105.80929788226135, -2.4235114450844586], [105.72596454892802, -2.4235114450844586], [105.72596454892802, -2.3338124051982274]]]}, "properties": {"sheet_id": "33-XXVI-d", "kind": "irregular", "anchor": "top", "span_lon_arcmin": 5.0166, "span_lat_arcmin": 5.3961, "beyond_cell_m": 734, "frame_measured": "both", "n_cells": 1}}, {"type": "Feature", "geometry": {"type": "Polygon", "coordinates": [[[105.80929788226136, -1.491439943074961], [105.89263121559469, -1.491439943074961], [105.89263121559469, -1.5838124051982272], [105.80929788226136, -1.5838124051982272], [105.80929788226136, -1.491439943074961]]]}, "properties": {"sheet_id": "34-XXIII-ie", "kind": "composite", "anchor": "bottom", "span_lon_arcmin": 5.0074, "span_lat_arcmin": 5.5646, "beyond_cell_m": 1046, "frame_measured": "both", "n_cells": 2}}, {"type": "Feature", "geometry": {"type": "Polygon", "coordinates": [[[105.89263121559469, -1.50047910427216], [105.97596454892802, -1.50047910427216], [105.97596454892802, -1.5838123870185412], [105.89263121559469, -1.5838123870185412], [105.89263121559469, -1.50047910427216]]]}, "properties": {"sheet_id": "34-XXIII-k", "kind": "single", "anchor": "cell", "span_lon_arcmin": 5.0093, "span_lat_arcmin": 5.0148, "beyond_cell_m": 27, "frame_measured": "height", "n_cells": 1}}, {"type": "Feature", "geometry": {"type": "Polygon", "coordinates": [[[105.97596454892802, -1.5004790453957173], [106.05929788226135, -1.5004790453957173], [106.05929788226135, -1.5838124463725018], [105.97596454892802, -1.5838124463725018], [105.97596454892802, -1.5004790453957173]]]}, "properties": {"sheet_id": "34-XXIII-l", "kind": "single", "anchor": "cell", "span_lon_arcmin": 5.0084, "span_lat_arcmin": 5.008, "beyond_cell_m": 16, "frame_measured": "both", "n_cells": 1}}, {"type": "Feature", "geometry": {"type": "Polygon", "coordinates": [[[105.80929788226136, -1.5838124577334927], [105.89263121559469, -1.5838124577334927], [105.89263121559469, -1.6671456437396692], [105.80929788226136, -1.6671456437396692], [105.80929788226136, -1.5838124577334927]]]}, "properties": {"sheet_id": "34-XXIII-n", "kind": "single", "anchor": "cell", "span_lon_arcmin": 5.0121, "span_lat_arcmin": 5.0149, "beyond_cell_m": 28, "frame_measured": "both", "n_cells": 1}}, {"type": "Feature", "geometry": {"type": "Polygon", "coordinates": [[[105.89263121559469, -1.5838123918085523], [105.97596454892802, -1.5838123918085523], [105.97596454892802, -1.667145762632976], [105.89263121559469, -1.667145762632976], [105.89263121559469, -1.5838123918085523]]]}, "properties": {"sheet_id": "34-XXIII-o", "kind": "single", "anchor": "cell", "span_lon_arcmin": 5.0088, "span_lat_arcmin": 5.0097, "beyond_cell_m": 18, "frame_measured": "both", "n_cells": 1}}, {"type": "Feature", "geometry": {"type": "Polygon", "coordinates": [[[105.97596454892802, -1.5838125987151928], [106.05929788226135, -1.5838125987151928], [106.05929788226135, -1.6671453656574082], [105.97596454892802, -1.6671453656574082], [105.97596454892802, -1.5838125987151928]]]}, "properties": {"sheet_id": "34-XXIII-p", "kind": "single", "anchor": "cell", "span_lon_arcmin": 5.0203, "span_lat_arcmin": 5.0139, "beyond_cell_m": 38, "frame_measured": "both", "n_cells": 1}}, {"type": "Feature", "geometry": {"type": "Polygon", "coordinates": [[[105.80929788226136, -1.6671458131422685], [105.89263121559469, -1.6671458131422685], [105.89263121559469, -1.7504787553346188], [105.80929788226136, -1.7504787553346188], [105.80929788226136, -1.6671458131422685]]]}, "properties": {"sheet_id": "34-XXIV-a", "kind": "single", "anchor": "cell", "span_lon_arcmin": 5.0097, "span_lat_arcmin": 5.02, "beyond_cell_m": 37, "frame_measured": "both", "n_cells": 1}}, {"type": "Feature", "geometry": {"type": "Polygon", "coordinates": [[[105.89263121559469, -1.6671455604903258], [105.97596454892802, -1.6671455604903258], [105.97596454892802, -1.75047912545012], [105.89263121559469, -1.75047912545012], [105.89263121559469, -1.6671455604903258]]]}, "properties": {"sheet_id": "34-XXIV-b", "kind": "single", "anchor": "cell", "span_lon_arcmin": 5.004, "span_lat_arcmin": 5.0155, "beyond_cell_m": 29, "frame_measured": "both", "n_cells": 1}}, {"type": "Feature", "geometry": {"type": "Polygon", "coordinates": [[[105.97596454892802, -1.6671457385315607], [106.09931401417384, -1.6671457385315607], [106.09931401417384, -1.750479071864894], [105.97596454892802, -1.750479071864894], [105.97596454892802, -1.6671457385315607]]]}, "properties": {"sheet_id": "34-XXIV-cd", "kind": "composite", "anchor": "left", "span_lon_arcmin": 7.4138, "span_lat_arcmin": 5.0225, "beyond_cell_m": 4470, "frame_measured": "both", "n_cells": 2}}, {"type": "Feature", "geometry": {"type": "Polygon", "coordinates": [[[105.80929788226136, -1.7504790294124943], [105.89263121559469, -1.7504790294124943], [105.89263121559469, -1.8338124534395905], [105.80929788226136, -1.8338124534395905], [105.80929788226136, -1.7504790294124943]]]}, "properties": {"sheet_id": "34-XXIV-e", "kind": "single", "anchor": "cell", "span_lon_arcmin": 5.0116, "span_lat_arcmin": 5.0218, "beyond_cell_m": 40, "frame_measured": "both", "n_cells": 1}}, {"type": "Feature", "geometry": {"type": "Polygon", "coordinates": [[[105.89263121559469, -1.7504790719815693], [105.97596454892802, -1.7504790719815693], [105.97596454892802, -1.833812404780141], [105.89263121559469, -1.833812404780141], [105.89263121559469, -1.7504790719815693]]]}, "properties": {"sheet_id": "34-XXIV-f", "kind": "single", "anchor": "cell", "span_lon_arcmin": 5.0037, "span_lat_arcmin": 5.0127, "beyond_cell_m": 24, "frame_measured": "height", "n_cells": 1}}, {"type": "Feature", "geometry": {"type": "Polygon", "coordinates": [[[105.97596454892802, -1.7504791062367369], [106.05929788226135, -1.7504791062367369], [106.05929788226135, -1.8338123419540362], [105.97596454892802, -1.8338123419540362], [105.97596454892802, -1.7504791062367369]]]}, "properties": {"sheet_id": "34-XXIV-g", "kind": "single", "anchor": "cell", "span_lon_arcmin": 5.0094, "span_lat_arcmin": 5.0082, "beyond_cell_m": 17, "frame_measured": "both", "n_cells": 1}}, {"type": "Feature", "geometry": {"type": "Polygon", "coordinates": [[[106.05929788226136, -1.7504790569170063], [106.14263121559469, -1.7504790569170063], [106.14263121559469, -1.8338124137030598], [106.05929788226136, -1.8338124137030598], [106.05929788226136, -1.7504790569170063]]]}, "properties": {"sheet_id": "34-XXIV-h", "kind": "single", "anchor": "cell", "span_lon_arcmin": 5.0068, "span_lat_arcmin": 5.0105, "beyond_cell_m": 20, "frame_measured": "both", "n_cells": 1}}, {"type": "Feature", "geometry": {"type": "Polygon", "coordinates": [[[105.80929788226136, -1.8338124531178202], [105.89263121559469, -1.8338124531178202], [105.89263121559469, -1.9171456343585322], [105.80929788226136, -1.9171456343585322], [105.80929788226136, -1.8338124531178202]]]}, "properties": {"sheet_id": "34-XXIV-i", "kind": "single", "anchor": "cell", "span_lon_arcmin": 5.0055, "span_lat_arcmin": 5.0084, "beyond_cell_m": 16, "frame_measured": "both", "n_cells": 1}}, {"type": "Feature", "geometry": {"type": "Polygon", "coordinates": [[[105.89263121559469, -1.833812502722033], [105.97596454892802, -1.833812502722033], [105.97596454892802, -1.9171453971982402], [105.89263121559469, -1.9171453971982402], [105.89263121559469, -1.833812502722033]]]}, "properties": {"sheet_id": "34-XXIV-k", "kind": "single", "anchor": "cell", "span_lon_arcmin": 5.0047, "span_lat_arcmin": 5.0114, "beyond_cell_m": 21, "frame_measured": "both", "n_cells": 1}}, {"type": "Feature", "geometry": {"type": "Polygon", "coordinates": [[[105.97596454892802, -1.8338121678534467], [106.05929788226135, -1.8338121678534467], [106.05929788226135, -1.9171461426591596], [105.97596454892802, -1.9171461426591596], [105.97596454892802, -1.8338121678534467]]]}, "properties": {"sheet_id": "34-XXIV-l", "kind": "single", "anchor": "cell", "span_lon_arcmin": 5.0169, "span_lat_arcmin": 5.0116, "beyond_cell_m": 31, "frame_measured": "both", "n_cells": 1}}, {"type": "Feature", "geometry": {"type": "Polygon", "coordinates": [[[106.05929788226136, -1.8338123966568025], [106.14263121559469, -1.8338123966568025], [106.14263121559469, -1.9171458035777957], [106.05929788226136, -1.9171458035777957], [106.05929788226136, -1.8338123966568025]]]}, "properties": {"sheet_id": "34-XXIV-m", "kind": "single", "anchor": "cell", "span_lon_arcmin": 5.008, "span_lat_arcmin": 5.013, "beyond_cell_m": 24, "frame_measured": "both", "n_cells": 1}}, {"type": "Feature", "geometry": {"type": "Polygon", "coordinates": [[[105.80929788226136, -1.9171458247070792], [105.89263121559469, -1.9171458247070792], [105.89263121559469, -2.0004789603436346], [105.80929788226136, -2.0004789603436346], [105.80929788226136, -1.9171458247070792]]]}, "properties": {"sheet_id": "34-XXIV-n", "kind": "single", "anchor": "cell", "span_lon_arcmin": 5.0208, "span_lat_arcmin": 5.0135, "beyond_cell_m": 39, "frame_measured": "both", "n_cells": 1}}, {"type": "Feature", "geometry": {"type": "Polygon", "coordinates": [[[105.89263121559469, -1.9171455818372038], [105.97596454892802, -1.9171455818372038], [105.97596454892802, -2.0004792509441587], [105.89263121559469, -2.0004792509441587], [105.89263121559469, -1.9171455818372038]]]}, "properties": {"sheet_id": "34-XXIV-o", "kind": "single", "anchor": "cell", "span_lon_arcmin": 5.0065, "span_lat_arcmin": 5.0226, "beyond_cell_m": 42, "frame_measured": "both", "n_cells": 1}}, {"type": "Feature", "geometry": {"type": "Polygon", "coordinates": [[[105.97596454892802, -1.9171457664013818], [106.05929788226135, -1.9171457664013818], [106.05929788226135, -2.0004790549244142], [105.97596454892802, -2.0004790549244142], [105.97596454892802, -1.9171457664013818]]]}, "properties": {"sheet_id": "34-XXIV-p", "kind": "single", "anchor": "cell", "span_lon_arcmin": 5.0231, "span_lat_arcmin": 5.019, "beyond_cell_m": 43, "frame_measured": "both", "n_cells": 1}}, {"type": "Feature", "geometry": {"type": "Polygon", "coordinates": [[[106.05929788226136, -1.9171453185884173], [106.14263121559469, -1.9171453185884173], [106.14263121559469, -2.000479818430482], [106.05929788226136, -2.000479818430482], [106.05929788226136, -1.9171453185884173]]]}, "properties": {"sheet_id": "34-XXIV-q", "kind": "single", "anchor": "cell", "span_lon_arcmin": 5.0447, "span_lat_arcmin": 5.0087, "beyond_cell_m": 83, "frame_measured": "both", "n_cells": 1}}, {"type": "Feature", "geometry": {"type": "Polygon", "coordinates": [[[105.80929788226136, -2.0004790718520016], [105.89263121559469, -2.0004790718520016], [105.89263121559469, -2.0838124052344495], [105.80929788226136, -2.0838124052344495], [105.80929788226136, -2.0004790718520016]]]}, "properties": {"sheet_id": "34-XXV-a", "kind": "single", "anchor": "cell", "span_lon_arcmin": 5.0164, "span_lat_arcmin": 5.0093, "beyond_cell_m": 30, "frame_measured": "both", "n_cells": 1}}, {"type": "Feature", "geometry": {"type": "Polygon", "coordinates": [[[105.89263121559469, -2.000479098542319], [105.97596454892802, -2.000479098542319], [105.97596454892802, -2.083812386493366], [105.89263121559469, -2.083812386493366], [105.89263121559469, -2.000479098542319]]]}, "properties": {"sheet_id": "34-XXV-b", "kind": "single", "anchor": "cell", "span_lon_arcmin": 5.0119, "span_lat_arcmin": 5.0171, "beyond_cell_m": 32, "frame_measured": "both", "n_cells": 1}}, {"type": "Feature", "geometry": {"type": "Polygon", "coordinates": [[[105.97596454892802, -2.000479071864894], [106.05929788226135, -2.000479071864894], [106.05929788226135, -2.083812309644886], [105.97596454892802, -2.083812309644886], [105.97596454892802, -2.000479071864894]]]}, "properties": {"sheet_id": "34-XXV-c", "kind": "single", "anchor": "cell", "span_lon_arcmin": 5.007, "span_lat_arcmin": 5.0053, "beyond_cell_m": 13, "frame_measured": "width", "n_cells": 1}}, {"type": "Feature", "geometry": {"type": "Polygon", "coordinates": [[[106.05929788226136, -2.0004791011055056], [106.14263121559469, -2.0004791011055056], [106.14263121559469, -2.0838123362739283], [106.05929788226136, -2.0838123362739283], [106.05929788226136, -2.0004791011055056]]]}, "properties": {"sheet_id": "34-XXV-d", "kind": "single", "anchor": "cell", "span_lon_arcmin": 5.0117, "span_lat_arcmin": 5.0054, "beyond_cell_m": 22, "frame_measured": "height", "n_cells": 1}}, {"type": "Feature", "geometry": {"type": "Polygon", "coordinates": [[[105.80929788226136, -2.0838128198553005], [105.89263121559469, -2.0838128198553005], [105.89263121559469, -2.167145262443811], [105.80929788226136, -2.167145262443811], [105.80929788226136, -2.0838128198553005]]]}, "properties": {"sheet_id": "34-XXV-e", "kind": "single", "anchor": "cell", "span_lon_arcmin": 5.0075, "span_lat_arcmin": 5.0134, "beyond_cell_m": 25, "frame_measured": "both", "n_cells": 1}}, {"type": "Feature", "geometry": {"type": "Polygon", "coordinates": [[[105.89263121559469, -2.083812709647426], [105.97596454892802, -2.083812709647426], [105.97596454892802, -2.1671452818577626], [105.89263121559469, -2.1671452818577626], [105.89263121559469, -2.083812709647426]]]}, "properties": {"sheet_id": "34-XXV-f", "kind": "single", "anchor": "cell", "span_lon_arcmin": 5.0041, "span_lat_arcmin": 5.0069, "beyond_cell_m": 13, "frame_measured": "both", "n_cells": 1}}, {"type": "Feature", "geometry": {"type": "Polygon", "coordinates": [[[105.97596454892802, -2.0838121082010788], [106.05929788226135, -2.0838121082010788], [106.05929788226135, -2.1671458503046814], [105.97596454892802, -2.1671458503046814], [105.97596454892802, -2.0838121082010788]]]}, "properties": {"sheet_id": "34-XXV-g", "kind": "single", "anchor": "cell", "span_lon_arcmin": 5.0118, "span_lat_arcmin": 5.0148, "beyond_cell_m": 27, "frame_measured": "both", "n_cells": 1}}, {"type": "Feature", "geometry": {"type": "Polygon", "coordinates": [[[106.05929788226136, -2.083813498441326], [106.14263121559469, -2.083813498441326], [106.14263121559469, -2.1671453973283006], [106.05929788226136, -2.1671453973283006], [106.05929788226136, -2.083813498441326]]]}, "properties": {"sheet_id": "34-XXV-h", "kind": "single", "anchor": "cell", "span_lon_arcmin": 5.0059, "span_lat_arcmin": 5.0238, "beyond_cell_m": 44, "frame_measured": "both", "n_cells": 1}}, {"type": "Feature", "geometry": {"type": "Polygon", "coordinates": [[[105.80929788226136, -2.167145471480459], [105.89263121559469, -2.167145471480459], [105.89263121559469, -2.2504793162845456], [105.80929788226136, -2.2504793162845456], [105.80929788226136, -2.167145471480459]]]}, "properties": {"sheet_id": "34-XXV-i", "kind": "single", "anchor": "cell", "span_lon_arcmin": 5.0043, "span_lat_arcmin": 5.0131, "beyond_cell_m": 24, "frame_measured": "both", "n_cells": 1}}, {"type": "Feature", "geometry": {"type": "Polygon", "coordinates": [[[105.89263121559469, -2.167145877007258], [105.97596454892802, -2.167145877007258], [105.97596454892802, -2.250478702596367], [105.89263121559469, -2.250478702596367], [105.89263121559469, -2.167145877007258]]]}, "properties": {"sheet_id": "34-XXV-k", "kind": "single", "anchor": "cell", "span_lon_arcmin": 5.0109, "span_lat_arcmin": 5.0076, "beyond_cell_m": 20, "frame_measured": "both", "n_cells": 1}}, {"type": "Feature", "geometry": {"type": "Polygon", "coordinates": [[[105.97596454892802, -2.167145771616001], [106.05929788226135, -2.167145771616001], [106.05929788226135, -2.2504789673877132], [105.97596454892802, -2.2504789673877132], [105.97596454892802, -2.167145771616001]]]}, "properties": {"sheet_id": "34-XXV-l", "kind": "single", "anchor": "cell", "span_lon_arcmin": 5.0187, "span_lat_arcmin": 5.0091, "beyond_cell_m": 35, "frame_measured": "both", "n_cells": 1}}, {"type": "Feature", "geometry": {"type": "Polygon", "coordinates": [[[106.05929788226136, -2.1671452037465655], [106.14263121559469, -2.1671452037465655], [106.14263121559469, -2.2504793598260453], [106.05929788226136, -2.2504793598260453], [106.05929788226136, -2.1671452037465655]]]}, "properties": {"sheet_id": "34-XXV-m", "kind": "single", "anchor": "cell", "span_lon_arcmin": 5.0136, "span_lat_arcmin": 5.0185, "beyond_cell_m": 34, "frame_measured": "height", "n_cells": 1}}, {"type": "Feature", "geometry": {"type": "Polygon", "coordinates": [[[105.80929788226136, -2.2504789372524656], [105.89263121559469, -2.2504789372524656], [105.89263121559469, -2.333812600288703], [105.80929788226136, -2.333812600288703], [105.80929788226136, -2.2504789372524656]]]}, "properties": {"sheet_id": "34-XXV-n", "kind": "single", "anchor": "cell", "span_lon_arcmin": 5.0086, "span_lat_arcmin": 5.0195, "beyond_cell_m": 36, "frame_measured": "both", "n_cells": 1}}, {"type": "Feature", "geometry": {"type": "Polygon", "coordinates": [[[105.89263121559469, -2.250479124187403], [105.97596454892802, -2.250479124187403], [105.97596454892802, -2.333812154050184], [105.89263121559469, -2.333812154050184], [105.89263121559469, -2.250479124187403]]]}, "properties": {"sheet_id": "34-XXV-o", "kind": "single", "anchor": "cell", "span_lon_arcmin": 5.0126, "span_lat_arcmin": 5.01, "beyond_cell_m": 23, "frame_measured": "both", "n_cells": 1}}, {"type": "Feature", "geometry": {"type": "Polygon", "coordinates": [[[105.97596454892802, -2.250479190786352], [106.05929788226135, -2.250479190786352], [106.05929788226135, -2.3338119357714184], [105.97596454892802, -2.3338119357714184], [105.97596454892802, -2.250479190786352]]]}, "properties": {"sheet_id": "34-XXV-p", "kind": "single", "anchor": "cell", "span_lon_arcmin": 5.0063, "span_lat_arcmin": 5.0109, "beyond_cell_m": 20, "frame_measured": "both", "n_cells": 1}}, {"type": "Feature", "geometry": {"type": "Polygon", "coordinates": [[[106.05929788226136, -2.250479344442273], [106.14263121559469, -2.250479344442273], [106.14263121559469, -2.3338124051982274], [106.05929788226136, -2.3338124051982274], [106.05929788226136, -2.250479344442273]]]}, "properties": {"sheet_id": "34-XXV-q", "kind": "single", "anchor": "cell", "span_lon_arcmin": 5.0072, "span_lat_arcmin": 5.0029, "beyond_cell_m": 13, "frame_measured": "width", "n_cells": 1}}, {"type": "Feature", "geometry": {"type": "Polygon", "coordinates": [[[105.80929788226136, -2.333812385964898], [105.89263121559469, -2.333812385964898], [105.89263121559469, -2.4171457510072343], [105.80929788226136, -2.4171457510072343], [105.80929788226136, -2.333812385964898]]]}, "properties": {"sheet_id": "34-XXVI-a", "kind": "single", "anchor": "cell", "span_lon_arcmin": 5.011, "span_lat_arcmin": 5.0071, "beyond_cell_m": 20, "frame_measured": "both", "n_cells": 1}}, {"type": "Feature", "geometry": {"type": "Polygon", "coordinates": [[[105.89263121559469, -2.3338122766838034], [105.97596454892802, -2.3338122766838034], [105.97596454892802, -2.4171459741413384], [105.89263121559469, -2.4171459741413384], [105.89263121559469, -2.3338122766838034]]]}, "properties": {"sheet_id": "34-XXVI-b", "kind": "single", "anchor": "cell", "span_lon_arcmin": 5.0127, "span_lat_arcmin": 5.0138, "beyond_cell_m": 26, "frame_measured": "both", "n_cells": 1}}, {"type": "Feature", "geometry": {"type": "Polygon", "coordinates": [[[105.97596454892802, -2.3338124600576027], [106.05929788226135, -2.3338124600576027], [106.05929788226135, -2.417145738531561], [105.97596454892802, -2.417145738531561], [105.97596454892802, -2.3338124600576027]]]}, "properties": {"sheet_id": "34-XXVI-c", "kind": "single", "anchor": "cell", "span_lon_arcmin": 5.0097, "span_lat_arcmin": 5.009, "beyond_cell_m": 18, "frame_measured": "none", "n_cells": 1}}, {"type": "Feature", "geometry": {"type": "Polygon", "coordinates": [[[106.05929788226136, -2.333812447354238], [106.14263121559469, -2.333812447354238], [106.14263121559469, -2.417145676024373], [106.05929788226136, -2.417145676024373], [106.05929788226136, -2.333812447354238]]]}, "properties": {"sheet_id": "34-XXVI-d", "kind": "single", "anchor": "cell", "span_lon_arcmin": 5.007, "span_lat_arcmin": 5.0083, "beyond_cell_m": 15, "frame_measured": "both", "n_cells": 1}}, {"type": "Feature", "geometry": {"type": "Polygon", "coordinates": [[[105.80929788226136, -2.417145469080958], [105.89263121559469, -2.417145469080958], [105.89263121559469, -2.50047923712793], [105.80929788226136, -2.50047923712793], [105.80929788226136, -2.417145469080958]]]}, "properties": {"sheet_id": "34-XXVI-e", "kind": "single", "anchor": "cell", "span_lon_arcmin": 5.012, "span_lat_arcmin": 5.014, "beyond_cell_m": 26, "frame_measured": "both", "n_cells": 1}}, {"type": "Feature", "geometry": {"type": "Polygon", "coordinates": [[[105.89263121559469, -2.4171456330858447], [105.97596454892802, -2.4171456330858447], [105.97596454892802, -2.5004791482221362], [105.89263121559469, -2.5004791482221362], [105.89263121559469, -2.4171456330858447]]]}, "properties": {"sheet_id": "34-XXVI-f", "kind": "single", "anchor": "cell", "span_lon_arcmin": 5.0073, "span_lat_arcmin": 5.0116, "beyond_cell_m": 21, "frame_measured": "both", "n_cells": 1}}, {"type": "Feature", "geometry": {"type": "Polygon", "coordinates": [[[105.97596454892802, -2.4171458597917415], [106.05929788226135, -2.4171458597917415], [106.05929788226135, -2.5004789910247736], [105.97596454892802, -2.5004789910247736], [105.97596454892802, -2.4171458597917415]]]}, "properties": {"sheet_id": "34-XXVI-g", "kind": "single", "anchor": "cell", "span_lon_arcmin": 5.0252, "span_lat_arcmin": 5.0231, "beyond_cell_m": 47, "frame_measured": "both", "n_cells": 1}}, {"type": "Feature", "geometry": {"type": "Polygon", "coordinates": [[[106.05929788226136, -2.417145720729663], [106.14263121559469, -2.417145720729663], [106.14263121559469, -2.500479135284154], [106.05929788226136, -2.500479135284154], [106.05929788226136, -2.417145720729663]]]}, "properties": {"sheet_id": "34-XXVI-h", "kind": "single", "anchor": "cell", "span_lon_arcmin": 5.0092, "span_lat_arcmin": 5.0084, "beyond_cell_m": 17, "frame_measured": "both", "n_cells": 1}}, {"type": "Feature", "geometry": {"type": "Polygon", "coordinates": [[[105.89263121559469, -2.5004801695371346], [105.97596454892802, -2.5004801695371346], [105.97596454892802, -2.583737243535862], [105.89263121559469, -2.583737243535862], [105.89263121559469, -2.5004801695371346]]]}, "properties": {"sheet_id": "34-XXVI-k", "kind": "single", "anchor": "cell", "span_lon_arcmin": 5.0, "span_lat_arcmin": 5.1523, "beyond_cell_m": 282, "frame_measured": "height", "n_cells": 1}}, {"type": "Feature", "geometry": {"type": "Polygon", "coordinates": [[[105.97596454892802, -2.500479087609016], [106.05929788226135, -2.500479087609016], [106.05929788226135, -2.5838123697739523], [105.97596454892802, -2.5838123697739523], [105.97596454892802, -2.500479087609016]]]}, "properties": {"sheet_id": "34-XXVI-l", "kind": "single", "anchor": "cell", "span_lon_arcmin": 5.0227, "span_lat_arcmin": 5.0165, "beyond_cell_m": 42, "frame_measured": "both", "n_cells": 1}}, {"type": "Feature", "geometry": {"type": "Polygon", "coordinates": [[[106.05929788226136, -2.500478991031694], [106.14263121559469, -2.500478991031694], [106.14263121559469, -2.5838126476978283], [106.05929788226136, -2.5838126476978283], [106.05929788226136, -2.500478991031694]]]}, "properties": {"sheet_id": "34-XXVI-m", "kind": "single", "anchor": "cell", "span_lon_arcmin": 5.017, "span_lat_arcmin": 5.0148, "beyond_cell_m": 31, "frame_measured": "both", "n_cells": 1}}, {"type": "Feature", "geometry": {"type": "Polygon", "coordinates": [[[105.88480369305861, -2.583812405198227], [105.97596454892802, -2.583812405198227], [105.97596454892802, -2.6671457385315605], [105.88480369305861, -2.6671457385315605], [105.88480369305861, -2.583812405198227]]]}, "properties": {"sheet_id": "34-XXVI-on", "kind": "composite", "anchor": "right", "span_lon_arcmin": 5.4786, "span_lat_arcmin": 5.0177, "beyond_cell_m": 886, "frame_measured": "both", "n_cells": 2}}, {"type": "Feature", "geometry": {"type": "Polygon", "coordinates": [[[105.97596454892802, -2.5838123220718816], [106.05929788226135, -2.5838123220718816], [106.05929788226135, -2.6671459324930322], [105.97596454892802, -2.6671459324930322], [105.97596454892802, -2.5838123220718816]]]}, "properties": {"sheet_id": "34-XXVI-p", "kind": "single", "anchor": "cell", "span_lon_arcmin": 5.0046, "span_lat_arcmin": 5.0093, "beyond_cell_m": 17, "frame_measured": "both", "n_cells": 1}}, {"type": "Feature", "geometry": {"type": "Polygon", "coordinates": [[[106.05929788226136, -2.5838124055111065], [106.14263121559469, -2.5838124055111065], [106.14263121559469, -2.6671457383852135], [106.05929788226136, -2.6671457383852135], [106.05929788226136, -2.5838124055111065]]]}, "properties": {"sheet_id": "34-XXVI-q", "kind": "single", "anchor": "cell", "span_lon_arcmin": 5.013, "span_lat_arcmin": 5.0105, "beyond_cell_m": 24, "frame_measured": "both", "n_cells": 1}}, {"type": "Feature", "geometry": {"type": "Polygon", "coordinates": [[[105.89263121559469, -2.667145678101034], [105.97596454892802, -2.667145678101034], [105.97596454892802, -2.7504791851721313], [105.89263121559469, -2.7504791851721313], [105.89263121559469, -2.667145678101034]]]}, "properties": {"sheet_id": "34-XXVII-b", "kind": "single", "anchor": "cell", "span_lon_arcmin": 5.0084, "span_lat_arcmin": 5.0053, "beyond_cell_m": 16, "frame_measured": "both", "n_cells": 1}}, {"type": "Feature", "geometry": {"type": "Polygon", "coordinates": [[[105.97596454892802, -2.6671456625465892], [106.05929788226135, -2.6671456625465892], [106.05929788226135, -2.7504792576059343], [105.97596454892802, -2.7504792576059343], [105.97596454892802, -2.6671456625465892]]]}, "properties": {"sheet_id": "34-XXVII-c", "kind": "single", "anchor": "cell", "span_lon_arcmin": 5.0045, "span_lat_arcmin": 5.0072, "beyond_cell_m": 13, "frame_measured": "both", "n_cells": 1}}, {"type": "Feature", "geometry": {"type": "Polygon", "coordinates": [[[106.05929788226136, -2.6671457517270687], [106.14263121559469, -2.6671457517270687], [106.14263121559469, -2.750479058362514], [106.05929788226136, -2.750479058362514], [106.05929788226136, -2.6671457517270687]]]}, "properties": {"sheet_id": "34-XXVII-d", "kind": "single", "anchor": "cell", "span_lon_arcmin": 5.0071, "span_lat_arcmin": 5.0101, "beyond_cell_m": 19, "frame_measured": "height", "n_cells": 1}}, {"type": "Feature", "geometry": {"type": "Polygon", "coordinates": [[[105.89263121559469, -2.750479035799082], [105.97596454892802, -2.750479035799082], [105.97596454892802, -2.8338125262763105], [105.89263121559469, -2.8338125262763105], [105.89263121559469, -2.750479035799082]]]}, "properties": {"sheet_id": "34-XXVII-f", "kind": "single", "anchor": "cell", "span_lon_arcmin": 5.0093, "span_lat_arcmin": 5.0071, "beyond_cell_m": 17, "frame_measured": "both", "n_cells": 1}}, {"type": "Feature", "geometry": {"type": "Polygon", "coordinates": [[[105.97596454892802, -2.750479071864894], [106.05929788226135, -2.750479071864894], [106.05929788226135, -2.837671618565324], [105.97596454892802, -2.837671618565324], [105.97596454892802, -2.750479071864894]]]}, "properties": {"sheet_id": "34-XXVII-g", "kind": "irregular", "anchor": "top", "span_lon_arcmin": 5.0079, "span_lat_arcmin": 5.2441, "beyond_cell_m": 452, "frame_measured": "both", "n_cells": 1}}, {"type": "Feature", "geometry": {"type": "Polygon", "coordinates": [[[106.05929788226136, -2.7504791100530293], [106.14263121559469, -2.7504791100530293], [106.14263121559469, -2.8338120691426374], [106.05929788226136, -2.8338120691426374], [106.05929788226136, -2.7504791100530293]]]}, "properties": {"sheet_id": "34-XXVII-h", "kind": "single", "anchor": "cell", "span_lon_arcmin": 5.0082, "span_lat_arcmin": 5.017, "beyond_cell_m": 31, "frame_measured": "both", "n_cells": 1}}, {"type": "Feature", "geometry": {"type": "Polygon", "coordinates": [[[106.05929788226136, -2.833812139050678], [106.14263121559469, -2.833812139050678], [106.14263121559469, -2.9171459408036977], [106.05929788226136, -2.9171459408036977], [106.05929788226136, -2.833812139050678]]]}, "properties": {"sheet_id": "34-XXVII-m", "kind": "single", "anchor": "cell", "span_lon_arcmin": 5.0154, "span_lat_arcmin": 5.0153, "beyond_cell_m": 29, "frame_measured": "both", "n_cells": 1}}, {"type": "Feature", "geometry": {"type": "Polygon", "coordinates": [[[106.14263121559469, -1.8338124232666437], [106.22596454892802, -1.8338124232666437], [106.22596454892802, -1.9171457311703537], [106.14263121559469, -1.9171457311703537], [106.14263121559469, -1.8338124232666437]]]}, "properties": {"sheet_id": "35-XXIV-i", "kind": "single", "anchor": "cell", "span_lon_arcmin": 5.0056, "span_lat_arcmin": 5.022, "beyond_cell_m": 41, "frame_measured": "both", "n_cells": 1}}, {"type": "Feature", "geometry": {"type": "Polygon", "coordinates": [[[106.14263121559469, -1.9171453727031738], [106.22596454892802, -1.9171453727031738], [106.22596454892802, -2.000479852298786], [106.14263121559469, -2.000479852298786], [106.14263121559469, -1.9171453727031738]]]}, "properties": {"sheet_id": "35-XXIV-n", "kind": "single", "anchor": "cell", "span_lon_arcmin": 5.0714, "span_lat_arcmin": 5.0055, "beyond_cell_m": 132, "frame_measured": "both", "n_cells": 1}}, {"type": "Feature", "geometry": {"type": "Polygon", "coordinates": [[[106.14263121559469, -2.000479078932447], [106.22596454892802, -2.000479078932447], [106.22596454892802, -2.0838123755145044], [106.14263121559469, -2.0838123755145044], [106.14263121559469, -2.000479078932447]]]}, "properties": {"sheet_id": "35-XXV-a", "kind": "single", "anchor": "cell", "span_lon_arcmin": 5.0159, "span_lat_arcmin": 5.006, "beyond_cell_m": 29, "frame_measured": "both", "n_cells": 1}}, {"type": "Feature", "geometry": {"type": "Polygon", "coordinates": [[[106.14263121559469, -2.0838123119139635], [106.22596454892802, -2.0838123119139635], [106.22596454892802, -2.1671459872895973], [106.14263121559469, -2.1671459872895973], [106.14263121559469, -2.0838123119139635]]]}, "properties": {"sheet_id": "35-XXV-e", "kind": "single", "anchor": "cell", "span_lon_arcmin": 5.0068, "span_lat_arcmin": 5.0089, "beyond_cell_m": 17, "frame_measured": "both", "n_cells": 1}}, {"type": "Feature", "geometry": {"type": "Polygon", "coordinates": [[[106.14263121559469, -2.167145485917611], [106.22596454892802, -2.167145485917611], [106.22596454892802, -2.250479162274097], [106.14263121559469, -2.250479162274097], [106.14263121559469, -2.167145485917611]]]}, "properties": {"sheet_id": "35-XXV-i", "kind": "single", "anchor": "cell", "span_lon_arcmin": 5.0082, "span_lat_arcmin": 5.0149, "beyond_cell_m": 28, "frame_measured": "both", "n_cells": 1}}, {"type": "Feature", "geometry": {"type": "Polygon", "coordinates": [[[106.14263121559469, -2.2504788499712323], [106.22596454892802, -2.2504788499712323], [106.22596454892802, -2.3338125943534798], [106.14263121559469, -2.3338125943534798], [106.14263121559469, -2.2504788499712323]]]}, "properties": {"sheet_id": "35-XXV-n", "kind": "single", "anchor": "cell", "span_lon_arcmin": 5.0227, "span_lat_arcmin": 5.0131, "beyond_cell_m": 42, "frame_measured": "both", "n_cells": 1}}, {"type": "Feature", "geometry": {"type": "Polygon", "coordinates": [[[106.22596454892802, -2.250479036405149], [106.30929788226135, -2.250479036405149], [106.30929788226135, -2.333812476117717], [106.22596454892802, -2.333812476117717], [106.22596454892802, -2.250479036405149]]]}, "properties": {"sheet_id": "35-XXV-o", "kind": "single", "anchor": "cell", "span_lon_arcmin": 5.03, "span_lat_arcmin": 5.0056, "beyond_cell_m": 56, "frame_measured": "both", "n_cells": 1}}, {"type": "Feature", "geometry": {"type": "Polygon", "coordinates": [[[106.14263121559469, -2.3338122401199497], [106.22596454892802, -2.3338122401199497], [106.22596454892802, -2.4171458057856743], [106.14263121559469, -2.4171458057856743], [106.14263121559469, -2.3338122401199497]]]}, "properties": {"sheet_id": "35-XXVI-a", "kind": "single", "anchor": "cell", "span_lon_arcmin": 5.0118, "span_lat_arcmin": 5.0132, "beyond_cell_m": 24, "frame_measured": "both", "n_cells": 1}}, {"type": "Feature", "geometry": {"type": "Polygon", "coordinates": [[[106.22596454892802, -2.33381242141498], [106.30929788226135, -2.33381242141498], [106.30929788226135, -2.417145719685065], [106.22596454892802, -2.417145719685065], [106.22596454892802, -2.33381242141498]]]}, "properties": {"sheet_id": "35-XXVI-b", "kind": "single", "anchor": "cell", "span_lon_arcmin": 5.0083, "span_lat_arcmin": 5.0092, "beyond_cell_m": 17, "frame_measured": "both", "n_cells": 1}}, {"type": "Feature", "geometry": {"type": "Polygon", "coordinates": [[[106.14263121559469, -2.4171457385315605], [106.22596454892802, -2.4171457385315605], [106.22596454892802, -2.5004791415221512], [106.14263121559469, -2.5004791415221512], [106.14263121559469, -2.4171457385315605]]]}, "properties": {"sheet_id": "35-XXVI-e", "kind": "single", "anchor": "cell", "span_lon_arcmin": 5.0181, "span_lat_arcmin": 5.0115, "beyond_cell_m": 34, "frame_measured": "width", "n_cells": 1}}, {"type": "Feature", "geometry": {"type": "Polygon", "coordinates": [[[106.22596454892802, -2.417145689436034], [106.30929788226135, -2.417145689436034], [106.30929788226135, -2.5004791587262094], [106.22596454892802, -2.5004791587262094], [106.22596454892802, -2.417145689436034]]]}, "properties": {"sheet_id": "35-XXVI-f", "kind": "single", "anchor": "cell", "span_lon_arcmin": 5.0137, "span_lat_arcmin": 5.0208, "beyond_cell_m": 39, "frame_measured": "both", "n_cells": 1}}, {"type": "Feature", "geometry": {"type": "Polygon", "coordinates": [[[106.30929788226136, -2.4171453661294233], [106.39263121559469, -2.4171453661294233], [106.39263121559469, -2.500480761298978], [106.30929788226136, -2.500480761298978], [106.30929788226136, -2.4171453661294233]]]}, "properties": {"sheet_id": "35-XXVI-g", "kind": "single", "anchor": "cell", "span_lon_arcmin": 5.0039, "span_lat_arcmin": 5.0263, "beyond_cell_m": 49, "frame_measured": "both", "n_cells": 1}}, {"type": "Feature", "geometry": {"type": "Polygon", "coordinates": [[[106.39263121559469, -2.4171457393687312], [106.47596454892802, -2.4171457393687312], [106.47596454892802, -2.5004790646094146], [106.39263121559469, -2.5004790646094146], [106.39263121559469, -2.4171457393687312]]]}, "properties": {"sheet_id": "35-XXVI-h", "kind": "single", "anchor": "cell", "span_lon_arcmin": 5.0169, "span_lat_arcmin": 5.0101, "beyond_cell_m": 31, "frame_measured": "both", "n_cells": 1}}, {"type": "Feature", "geometry": {"type": "Polygon", "coordinates": [[[106.14263121559469, -2.5004790000736974], [106.22596454892802, -2.5004790000736974], [106.22596454892802, -2.5838125354859547], [106.14263121559469, -2.5838125354859547], [106.14263121559469, -2.5004790000736974]]]}, "properties": {"sheet_id": "35-XXVI-i", "kind": "single", "anchor": "cell", "span_lon_arcmin": 5.0189, "span_lat_arcmin": 5.0176, "beyond_cell_m": 35, "frame_measured": "both", "n_cells": 1}}, {"type": "Feature", "geometry": {"type": "Polygon", "coordinates": [[[106.22596454892802, -2.500478321532322], [106.30929788226135, -2.500478321532322], [106.30929788226135, -2.583812930431028], [106.22596454892802, -2.583812930431028], [106.22596454892802, -2.500478321532322]]]}, "properties": {"sheet_id": "35-XXVI-k", "kind": "single", "anchor": "cell", "span_lon_arcmin": 5.0232, "span_lat_arcmin": 5.0276, "beyond_cell_m": 51, "frame_measured": "both", "n_cells": 1}}, {"type": "Feature", "geometry": {"type": "Polygon", "coordinates": [[[106.30929788226136, -2.500479107364153], [106.39263121559469, -2.500479107364153], [106.39263121559469, -2.5838121516320913], [106.30929788226136, -2.5838121516320913], [106.30929788226136, -2.500479107364153]]]}, "properties": {"sheet_id": "35-XXVI-l", "kind": "single", "anchor": "cell", "span_lon_arcmin": 5.0068, "span_lat_arcmin": 5.0132, "beyond_cell_m": 24, "frame_measured": "both", "n_cells": 1}}, {"type": "Feature", "geometry": {"type": "Polygon", "coordinates": [[[106.39263121559469, -2.500478987964244], [106.47596454892802, -2.500478987964244], [106.47596454892802, -2.58381254303501], [106.39263121559469, -2.58381254303501], [106.39263121559469, -2.500478987964244]]]}, "properties": {"sheet_id": "35-XXVI-m", "kind": "single", "anchor": "cell", "span_lon_arcmin": 5.0044, "span_lat_arcmin": 5.0128, "beyond_cell_m": 24, "frame_measured": "both", "n_cells": 1}}, {"type": "Feature", "geometry": {"type": "Polygon", "coordinates": [[[106.14263121559469, -2.5838123223306506], [106.22596454892802, -2.5838123223306506], [106.22596454892802, -2.667145844772043], [106.14263121559469, -2.667145844772043], [106.14263121559469, -2.5838123223306506]]]}, "properties": {"sheet_id": "35-XXVI-n", "kind": "single", "anchor": "cell", "span_lon_arcmin": 5.0166, "span_lat_arcmin": 5.0206, "beyond_cell_m": 38, "frame_measured": "both", "n_cells": 1}}, {"type": "Feature", "geometry": {"type": "Polygon", "coordinates": [[[106.22596454892802, -2.5838124298366556], [106.30929788226135, -2.5838124298366556], [106.30929788226135, -2.667145669543961], [106.22596454892802, -2.667145669543961], [106.22596454892802, -2.5838124298366556]]]}, "properties": {"sheet_id": "35-XXVI-o", "kind": "single", "anchor": "cell", "span_lon_arcmin": 5.014, "span_lat_arcmin": 5.0066, "beyond_cell_m": 26, "frame_measured": "both", "n_cells": 1}}, {"type": "Feature", "geometry": {"type": "Polygon", "coordinates": [[[106.30929788226136, -2.5838122483100223], [106.39263121559469, -2.5838122483100223], [106.39263121559469, -2.6671458743001994], [106.30929788226136, -2.6671458743001994], [106.30929788226136, -2.5838122483100223]]]}, "properties": {"sheet_id": "35-XXVI-p", "kind": "single", "anchor": "cell", "span_lon_arcmin": 5.0077, "span_lat_arcmin": 5.0112, "beyond_cell_m": 21, "frame_measured": "both", "n_cells": 1}}, {"type": "Feature", "geometry": {"type": "Polygon", "coordinates": [[[106.39263121559469, -2.583812395079284], [106.47596454892802, -2.583812395079284], [106.47596454892802, -2.667145763828918], [106.39263121559469, -2.667145763828918], [106.39263121559469, -2.583812395079284]]]}, "properties": {"sheet_id": "35-XXVI-q", "kind": "single", "anchor": "cell", "span_lon_arcmin": 5.0142, "span_lat_arcmin": 5.0049, "beyond_cell_m": 26, "frame_measured": "both", "n_cells": 1}}, {"type": "Feature", "geometry": {"type": "Polygon", "coordinates": [[[106.14263121559469, -2.6671457385315605], [106.22596454892802, -2.6671457385315605], [106.22596454892802, -2.750479018892155], [106.14263121559469, -2.750479018892155], [106.14263121559469, -2.6671457385315605]]]}, "properties": {"sheet_id": "35-XXVII-a", "kind": "single", "anchor": "cell", "span_lon_arcmin": 5.0077, "span_lat_arcmin": 5.0043, "beyond_cell_m": 14, "frame_measured": "width", "n_cells": 1}}, {"type": "Feature", "geometry": {"type": "Polygon", "coordinates": [[[106.22596454892802, -2.6671457385315605], [106.30929788226135, -2.6671457385315605], [106.30929788226135, -2.750479071864894], [106.22596454892802, -2.750479071864894], [106.22596454892802, -2.6671457385315605]]]}, "properties": {"sheet_id": "35-XXVII-b", "kind": "single", "anchor": "cell", "span_lon_arcmin": 5.0053, "span_lat_arcmin": 5.0, "beyond_cell_m": 10, "frame_measured": "width", "n_cells": 1}}, {"type": "Feature", "geometry": {"type": "Polygon", "coordinates": [[[106.30929788226136, -2.667145511483746], [106.39263121559469, -2.667145511483746], [106.39263121559469, -2.750479584042521], [106.30929788226136, -2.750479584042521], [106.30929788226136, -2.667145511483746]]]}, "properties": {"sheet_id": "35-XXVII-c", "kind": "single", "anchor": "cell", "span_lon_arcmin": 5.014, "span_lat_arcmin": 5.0162, "beyond_cell_m": 30, "frame_measured": "both", "n_cells": 1}}, {"type": "Feature", "geometry": {"type": "Polygon", "coordinates": [[[106.39263121559469, -2.667145802225804], [106.47596454892802, -2.667145802225804], [106.47596454892802, -2.750479027857962], [106.39263121559469, -2.750479027857962], [106.39263121559469, -2.667145802225804]]]}, "properties": {"sheet_id": "35-XXVII-d", "kind": "single", "anchor": "cell", "span_lon_arcmin": 5.0079, "span_lat_arcmin": 5.0108, "beyond_cell_m": 20, "frame_measured": "both", "n_cells": 1}}, {"type": "Feature", "geometry": {"type": "Polygon", "coordinates": [[[106.14263121559469, -2.7504790395263305], [106.22596454892802, -2.7504790395263305], [106.22596454892802, -2.8338124837347385], [106.14263121559469, -2.8338124837347385], [106.14263121559469, -2.7504790395263305]]]}, "properties": {"sheet_id": "35-XXVII-e", "kind": "single", "anchor": "cell", "span_lon_arcmin": 5.0095, "span_lat_arcmin": 5.0056, "beyond_cell_m": 18, "frame_measured": "both", "n_cells": 1}}, {"type": "Feature", "geometry": {"type": "Polygon", "coordinates": [[[106.22596454892802, -2.7504789344087186], [106.30929788226135, -2.7504789344087186], [106.30929788226135, -2.8338126037460367], [106.22596454892802, -2.8338126037460367], [106.22596454892802, -2.7504789344087186]]]}, "properties": {"sheet_id": "35-XXVII-f", "kind": "single", "anchor": "cell", "span_lon_arcmin": 5.0111, "span_lat_arcmin": 5.0102, "beyond_cell_m": 20, "frame_measured": "both", "n_cells": 1}}, {"type": "Feature", "geometry": {"type": "Polygon", "coordinates": [[[106.30929788226136, -2.7504783538479987], [106.39263121559469, -2.7504783538479987], [106.39263121559469, -2.833812856147863], [106.30929788226136, -2.833812856147863], [106.30929788226136, -2.7504783538479987]]]}, "properties": {"sheet_id": "35-XXVII-g", "kind": "single", "anchor": "cell", "span_lon_arcmin": 5.0079, "span_lat_arcmin": 5.0309, "beyond_cell_m": 57, "frame_measured": "both", "n_cells": 1}}, {"type": "Feature", "geometry": {"type": "Polygon", "coordinates": [[[106.39263121559469, -2.7504786945449284], [106.47596454892802, -2.7504786945449284], [106.47596454892802, -2.833812675377956], [106.39263121559469, -2.833812675377956], [106.39263121559469, -2.7504786945449284]]]}, "properties": {"sheet_id": "35-XXVII-h", "kind": "single", "anchor": "cell", "span_lon_arcmin": 5.0146, "span_lat_arcmin": 5.0161, "beyond_cell_m": 30, "frame_measured": "both", "n_cells": 1}}, {"type": "Feature", "geometry": {"type": "Polygon", "coordinates": [[[106.14263121559469, -2.8338122116212134], [106.22596454892802, -2.8338122116212134], [106.22596454892802, -2.917145887436955], [106.14263121559469, -2.917145887436955], [106.14263121559469, -2.8338122116212134]]]}, "properties": {"sheet_id": "35-XXVII-i", "kind": "single", "anchor": "cell", "span_lon_arcmin": 5.018, "span_lat_arcmin": 5.016, "beyond_cell_m": 33, "frame_measured": "both", "n_cells": 1}}, {"type": "Feature", "geometry": {"type": "Polygon", "coordinates": [[[106.22596454892802, -2.833812405198227], [106.30929788226135, -2.833812405198227], [106.30929788226135, -2.9336608494412615], [106.22596454892802, -2.9336608494412615], [106.22596454892802, -2.833812405198227]]]}, "properties": {"sheet_id": "35-XXVII-ko", "kind": "composite", "anchor": "top", "span_lon_arcmin": 5.0069, "span_lat_arcmin": 6.0066, "beyond_cell_m": 1864, "frame_measured": "both", "n_cells": 2}}, {"type": "Feature", "geometry": {"type": "Polygon", "coordinates": [[[106.30929788226136, -2.8338123622565115], [106.39263121559469, -2.8338123622565115], [106.39263121559469, -2.917145797832025], [106.30929788226136, -2.917145797832025], [106.30929788226136, -2.8338123622565115]]]}, "properties": {"sheet_id": "35-XXVII-l", "kind": "single", "anchor": "cell", "span_lon_arcmin": 5.0144, "span_lat_arcmin": 5.0116, "beyond_cell_m": 27, "frame_measured": "both", "n_cells": 1}}, {"type": "Feature", "geometry": {"type": "Polygon", "coordinates": [[[106.39263121559469, -2.8338123206182724], [106.47596454892802, -2.8338123206182724], [106.47596454892802, -2.91714589107755], [106.39263121559469, -2.91714589107755], [106.39263121559469, -2.8338123206182724]]]}, "properties": {"sheet_id": "35-XXVII-m", "kind": "single", "anchor": "cell", "span_lon_arcmin": 5.0107, "span_lat_arcmin": 5.0182, "beyond_cell_m": 34, "frame_measured": "both", "n_cells": 1}}, {"type": "Feature", "geometry": {"type": "Polygon", "coordinates": [[[106.30929788226136, -2.9171457097809665], [106.39263121559469, -2.9171457097809665], [106.39263121559469, -3.0004791197825504], [106.30929788226136, -3.0004791197825504], [106.30929788226136, -2.9171457097809665]]]}, "properties": {"sheet_id": "35-XXVII-p", "kind": "single", "anchor": "cell", "span_lon_arcmin": 5.0145, "span_lat_arcmin": 5.0056, "beyond_cell_m": 27, "frame_measured": "both", "n_cells": 1}}, {"type": "Feature", "geometry": {"type": "Polygon", "coordinates": [[[106.39263121559469, -2.917145515131581], [106.47596454892802, -2.917145515131581], [106.47596454892802, -3.0004795575170227], [106.39263121559469, -3.0004795575170227], [106.39263121559469, -2.917145515131581]]]}, "properties": {"sheet_id": "35-XXVII-q", "kind": "single", "anchor": "cell", "span_lon_arcmin": 5.02, "span_lat_arcmin": 5.0085, "beyond_cell_m": 37, "frame_measured": "both", "n_cells": 1}}, {"type": "Feature", "geometry": {"type": "Polygon", "coordinates": [[[106.39263121559469, -3.0004789649296995], [106.47596454892802, -3.0004789649296995], [106.47596454892802, -3.0838125153738827], [106.39263121559469, -3.0838125153738827], [106.39263121559469, -3.0004789649296995]]]}, "properties": {"sheet_id": "35-XXVIII-d", "kind": "single", "anchor": "cell", "span_lon_arcmin": 5.0072, "span_lat_arcmin": 5.0078, "beyond_cell_m": 14, "frame_measured": "both", "n_cells": 1}}, {"type": "Feature", "geometry": {"type": "Polygon", "coordinates": [[[106.47596454892802, -2.492345816077065], [106.55929788226135, -2.492345816077065], [106.55929788226135, -2.5838124051982274], [106.47596454892802, -2.5838124051982274], [106.47596454892802, -2.492345816077065]]]}, "properties": {"sheet_id": "36-XXVI-ie", "kind": "composite", "anchor": "bottom", "span_lon_arcmin": 5.0207, "span_lat_arcmin": 5.4954, "beyond_cell_m": 917, "frame_measured": "both", "n_cells": 2}}, {"type": "Feature", "geometry": {"type": "Polygon", "coordinates": [[[106.55929788226136, -2.5004787312561954], [106.64263121559469, -2.5004787312561954], [106.64263121559469, -2.58381293314171], [106.55929788226136, -2.58381293314171], [106.55929788226136, -2.5004787312561954]]]}, "properties": {"sheet_id": "36-XXVI-k", "kind": "single", "anchor": "cell", "span_lon_arcmin": 5.0188, "span_lat_arcmin": 5.0177, "beyond_cell_m": 35, "frame_measured": "both", "n_cells": 1}}, {"type": "Feature", "geometry": {"type": "Polygon", "coordinates": [[[106.64263121559469, -2.500478846741766], [106.72596454892802, -2.500478846741766], [106.72596454892802, -2.5838124684559656], [106.64263121559469, -2.5838124684559656], [106.64263121559469, -2.500478846741766]]]}, "properties": {"sheet_id": "36-XXVI-l", "kind": "single", "anchor": "cell", "span_lon_arcmin": 5.0091, "span_lat_arcmin": 5.0179, "beyond_cell_m": 33, "frame_measured": "both", "n_cells": 1}}, {"type": "Feature", "geometry": {"type": "Polygon", "coordinates": [[[106.72596454892802, -2.500479000464683], [106.80929788226135, -2.500479000464683], [106.80929788226135, -2.5838125265785865], [106.72596454892802, -2.5838125265785865], [106.72596454892802, -2.500479000464683]]]}, "properties": {"sheet_id": "36-XXVI-m", "kind": "single", "anchor": "cell", "span_lon_arcmin": 5.0197, "span_lat_arcmin": 5.0188, "beyond_cell_m": 37, "frame_measured": "both", "n_cells": 1}}, {"type": "Feature", "geometry": {"type": "Polygon", "coordinates": [[[106.47596454892802, -2.5838117300824655], [106.55929788226135, -2.5838117300824655], [106.55929788226135, -2.66714630416909], [106.47596454892802, -2.66714630416909], [106.47596454892802, -2.5838117300824655]]]}, "properties": {"sheet_id": "36-XXVI-n", "kind": "single", "anchor": "cell", "span_lon_arcmin": 5.0305, "span_lat_arcmin": 5.0158, "beyond_cell_m": 56, "frame_measured": "both", "n_cells": 1}}, {"type": "Feature", "geometry": {"type": "Polygon", "coordinates": [[[106.55929788226136, -2.583812398201454], [106.64263121559469, -2.583812398201454], [106.64263121559469, -2.6671457584171265], [106.55929788226136, -2.6671457584171265], [106.55929788226136, -2.583812398201454]]]}, "properties": {"sheet_id": "36-XXVI-o", "kind": "single", "anchor": "cell", "span_lon_arcmin": 5.0071, "span_lat_arcmin": 5.0084, "beyond_cell_m": 16, "frame_measured": "both", "n_cells": 1}}, {"type": "Feature", "geometry": {"type": "Polygon", "coordinates": [[[106.64263121559469, -2.583812274064192], [106.72596454892802, -2.583812274064192], [106.72596454892802, -2.667145840054685], [106.64263121559469, -2.667145840054685], [106.64263121559469, -2.583812274064192]]]}, "properties": {"sheet_id": "36-XXVI-p", "kind": "single", "anchor": "cell", "span_lon_arcmin": 5.0113, "span_lat_arcmin": 5.0126, "beyond_cell_m": 23, "frame_measured": "both", "n_cells": 1}}, {"type": "Feature", "geometry": {"type": "Polygon", "coordinates": [[[106.72596454892802, -2.583812417399479], [106.80929788226135, -2.583812417399479], [106.80929788226135, -2.667145702605652], [106.72596454892802, -2.667145702605652], [106.72596454892802, -2.583812417399479]]]}, "properties": {"sheet_id": "36-XXVI-q", "kind": "single", "anchor": "cell", "span_lon_arcmin": 5.0155, "span_lat_arcmin": 5.0081, "beyond_cell_m": 29, "frame_measured": "both", "n_cells": 1}}, {"type": "Feature", "geometry": {"type": "Polygon", "coordinates": [[[106.47596454892802, -2.6671457119019744], [106.55929788226135, -2.6671457119019744], [106.55929788226135, -2.750479089429089], [106.47596454892802, -2.750479089429089], [106.47596454892802, -2.6671457119019744]]]}, "properties": {"sheet_id": "36-XXVII-a", "kind": "single", "anchor": "cell", "span_lon_arcmin": 5.0118, "span_lat_arcmin": 5.0179, "beyond_cell_m": 33, "frame_measured": "both", "n_cells": 1}}, {"type": "Feature", "geometry": {"type": "Polygon", "coordinates": [[[106.55929788226136, -2.667145608615483], [106.64263121559469, -2.667145608615483], [106.64263121559469, -2.7504791275432128], [106.55929788226136, -2.7504791275432128], [106.55929788226136, -2.667145608615483]]]}, "properties": {"sheet_id": "36-XXVII-b", "kind": "single", "anchor": "cell", "span_lon_arcmin": 5.0058, "span_lat_arcmin": 5.0161, "beyond_cell_m": 30, "frame_measured": "both", "n_cells": 1}}, {"type": "Feature", "geometry": {"type": "Polygon", "coordinates": [[[106.64263121559469, -2.667145495362459], [106.72596454892802, -2.667145495362459], [106.72596454892802, -2.75047921215476], [106.64263121559469, -2.75047921215476], [106.64263121559469, -2.667145495362459]]]}, "properties": {"sheet_id": "36-XXVII-c", "kind": "single", "anchor": "cell", "span_lon_arcmin": 5.0063, "span_lat_arcmin": 5.0141, "beyond_cell_m": 26, "frame_measured": "both", "n_cells": 1}}, {"type": "Feature", "geometry": {"type": "Polygon", "coordinates": [[[106.47596454892802, -2.7504792057212626], [106.55929788226135, -2.7504792057212626], [106.55929788226135, -2.8338122496354203], [106.47596454892802, -2.8338122496354203], [106.47596454892802, -2.7504792057212626]]]}, "properties": {"sheet_id": "36-XXVII-e", "kind": "single", "anchor": "cell", "span_lon_arcmin": 5.009, "span_lat_arcmin": 5.0183, "beyond_cell_m": 34, "frame_measured": "both", "n_cells": 1}}, {"type": "Feature", "geometry": {"type": "Polygon", "coordinates": [[[106.55929788226136, -2.750479071864894], [106.65474210588522, -2.750479071864894], [106.65474210588522, -2.8338124051982274], [106.55929788226136, -2.8338124051982274], [106.55929788226136, -2.750479071864894]]]}, "properties": {"sheet_id": "36-XXVII-fg", "kind": "composite", "anchor": "left", "span_lon_arcmin": 5.7424, "span_lat_arcmin": 5.0115, "beyond_cell_m": 1375, "frame_measured": "both", "n_cells": 2}}, {"type": "Feature", "geometry": {"type": "Polygon", "coordinates": [[[106.47596454892802, -2.8338124102762436], [106.55929788226135, -2.8338124102762436], [106.55929788226135, -2.917145724990183], [106.47596454892802, -2.917145724990183], [106.47596454892802, -2.8338124102762436]]]}, "properties": {"sheet_id": "36-XXVII-i", "kind": "single", "anchor": "cell", "span_lon_arcmin": 5.0177, "span_lat_arcmin": 5.005, "beyond_cell_m": 33, "frame_measured": "both", "n_cells": 1}}, {"type": "Feature", "geometry": {"type": "Polygon", "coordinates": [[[106.55929788226136, -2.833812592794334], [106.64263121559469, -2.833812592794334], [106.64263121559469, -2.917145585043836], [106.55929788226136, -2.917145585043836], [106.55929788226136, -2.833812592794334]]]}, "properties": {"sheet_id": "36-XXVII-k", "kind": "single", "anchor": "cell", "span_lon_arcmin": 5.0088, "span_lat_arcmin": 5.0206, "beyond_cell_m": 38, "frame_measured": "both", "n_cells": 1}}, {"type": "Feature", "geometry": {"type": "Polygon", "coordinates": [[[106.47596454892802, -2.9171457440396074], [106.55929788226135, -2.9171457440396074], [106.55929788226135, -3.0004790567177655], [106.47596454892802, -3.0004790567177655], [106.47596454892802, -2.9171457440396074]]]}, "properties": {"sheet_id": "36-XXVII-n", "kind": "single", "anchor": "cell", "span_lon_arcmin": 5.0086, "span_lat_arcmin": 5.0052, "beyond_cell_m": 16, "frame_measured": "both", "n_cells": 1}}, {"type": "Feature", "geometry": {"type": "Polygon", "coordinates": [[[106.55929788226136, -2.9171457289507914], [106.64263121559469, -2.9171457289507914], [106.64263121559469, -3.000479168870184], [106.55929788226136, -3.000479168870184], [106.55929788226136, -2.9171457289507914]]]}, "properties": {"sheet_id": "36-XXVII-o", "kind": "single", "anchor": "cell", "span_lon_arcmin": 5.0088, "span_lat_arcmin": 5.0102, "beyond_cell_m": 19, "frame_measured": "both", "n_cells": 1}}, {"type": "Feature", "geometry": {"type": "Polygon", "coordinates": [[[106.64263121559469, -2.9171453595147847], [106.72596454892802, -2.9171453595147847], [106.72596454892802, -3.0004793722178102], [106.64263121559469, -3.0004793722178102], [106.64263121559469, -2.9171453595147847]]]}, "properties": {"sheet_id": "36-XXVII-p", "kind": "single", "anchor": "cell", "span_lon_arcmin": 5.0114, "span_lat_arcmin": 5.0109, "beyond_cell_m": 21, "frame_measured": "both", "n_cells": 1}}, {"type": "Feature", "geometry": {"type": "Polygon", "coordinates": [[[106.47596454892802, -3.0004790978595883], [106.55929788226135, -3.0004790978595883], [106.55929788226135, -3.083812394339684], [106.47596454892802, -3.083812394339684], [106.47596454892802, -3.0004790978595883]]]}, "properties": {"sheet_id": "36-XXVIII-a", "kind": "single", "anchor": "cell", "span_lon_arcmin": 5.0188, "span_lat_arcmin": 5.0128, "beyond_cell_m": 35, "frame_measured": "both", "n_cells": 1}}, {"type": "Feature", "geometry": {"type": "Polygon", "coordinates": [[[106.55929788226136, -3.000479071864894], [106.64263121559469, -3.000479071864894], [106.64263121559469, -3.1019001530383954], [106.55929788226136, -3.1019001530383954], [106.55929788226136, -3.000479071864894]]]}, "properties": {"sheet_id": "36-XXVIII-bf", "kind": "composite", "anchor": "top", "span_lon_arcmin": 5.0057, "span_lat_arcmin": 6.1091, "beyond_cell_m": 2054, "frame_measured": "both", "n_cells": 2}}, {"type": "Feature", "geometry": {"type": "Polygon", "coordinates": [[[106.64263121559469, -3.0004790216410395], [106.72596454892802, -3.0004790216410395], [106.72596454892802, -3.083812447888503], [106.64263121559469, -3.083812447888503], [106.64263121559469, -3.0004790216410395]]]}, "properties": {"sheet_id": "36-XXVIII-c", "kind": "single", "anchor": "cell", "span_lon_arcmin": 5.0111, "span_lat_arcmin": 5.0212, "beyond_cell_m": 39, "frame_measured": "both", "n_cells": 1}}, {"type": "Feature", "geometry": {"type": "Polygon", "coordinates": [[[106.72596454892802, -3.000479071864894], [106.80929788226135, -3.000479071864894], [106.80929788226135, -3.091985084649107], [106.72596454892802, -3.091985084649107], [106.72596454892802, -3.000479071864894]]]}, "properties": {"sheet_id": "36-XXVIII-dh", "kind": "composite", "anchor": "top", "span_lon_arcmin": 5.0247, "span_lat_arcmin": 5.5088, "beyond_cell_m": 942, "frame_measured": "both", "n_cells": 2}}, {"type": "Feature", "geometry": {"type": "Polygon", "coordinates": [[[106.47596454892802, -3.0838123336107777], [106.55929788226135, -3.0838123336107777], [106.55929788226135, -3.1671460487438425], [106.47596454892802, -3.1671460487438425], [106.47596454892802, -3.0838123336107777]]]}, "properties": {"sheet_id": "36-XXVIII-e", "kind": "single", "anchor": "cell", "span_lon_arcmin": 5.0207, "span_lat_arcmin": 5.0074, "beyond_cell_m": 38, "frame_measured": "both", "n_cells": 1}}, {"type": "Feature", "geometry": {"type": "Polygon", "coordinates": [[[106.64263121559469, -3.083813039522191], [106.72596454892802, -3.083813039522191], [106.72596454892802, -3.16714555599229], [106.64263121559469, -3.16714555599229], [106.64263121559469, -3.083813039522191]]]}, "properties": {"sheet_id": "36-XXVIII-g", "kind": "single", "anchor": "cell", "span_lon_arcmin": 5.0154, "span_lat_arcmin": 5.0205, "beyond_cell_m": 38, "frame_measured": "both", "n_cells": 1}}, {"type": "Feature", "geometry": {"type": "Polygon", "coordinates": [[[106.80929788226136, -2.500479071864894], [106.89263121559469, -2.500479071864894], [106.89263121559469, -2.595252678536322], [106.80929788226136, -2.595252678536322], [106.80929788226136, -2.500479071864894]]]}, "properties": {"sheet_id": "37-XXVI-in", "kind": "composite", "anchor": "top", "span_lon_arcmin": 5.0064, "span_lat_arcmin": 5.7107, "beyond_cell_m": 1316, "frame_measured": "height", "n_cells": 2}}]}